OBJECT_NAME,OBJECT_ID,EPOCH,MEAN_MOTION,ECCENTRICITY,INCLINATION,RA_OF_ASC_NODE,ARG_OF_PERICENTER,MEAN_ANOMALY,EPHEMERIS_TYPE,CLASSIFICATION_TYPE,NORAD_CAT_ID,ELEMENT_SET_NO,REV_AT_EPOCH,BSTAR,MEAN_MOTION_DOT,MEAN_MOTION_DDOT
TIGRISAT,2014-033AK,2026-06-12T04:44:26.604096,14.85144158,.00507087,97.7821,313.3239,91.1559,269.5467,0,U,40043,999,64488,.23433904E-3,.1997E-4,0
AEROCUBE 6A,2014-033AM,2026-06-12T05:08:48.881760,14.98056330,.00392431,97.7225,330.2162,34.7060,325.6711,0,U,40045,999,64587,.53248465E-3,.6338E-4,0
AEROCUBE 6B,2014-033AN,2026-06-12T06:55:14.374848,14.99523461,.00387042,97.7230,330.0686,26.0824,334.2338,0,U,40046,999,64602,.5197011E-3,.6424E-4,0
CANX-4,2014-034C,2026-06-12T05:17:48.052320,14.81256317,.00135128,98.3129,38.3513,32.3628,327.8409,0,U,40055,999,64379,.12445919E-3,.914E-5,0
CANX-5,2014-034D,2026-06-12T05:15:37.660032,14.81273504,.00135231,98.3132,38.3932,32.4578,327.7462,0,U,40056,999,63460,.12487607E-3,.917E-5,0
UKUBE-1,2014-037F,2026-06-12T06:37:22.944000,15.13478860,.00023091,98.4233,166.0318,138.1037,222.0368,0,U,40074,999,64781,.52263432E-3,.9279E-4,0
AEROCUBE 5C,2015-058B,2026-06-11T14:31:45.771168,14.91428215,.0130533,64.7678,279.9542,65.4583,296.0071,0,U,40965,999,36482,.2072E-3,.2265E-4,0
AEROCUBE 7,2015-058C,2026-06-11T22:50:49.694784,14.95693064,.01202571,64.7628,261.2129,63.7751,297.5666,0,U,40966,999,36517,.24156019E-3,.2935E-4,0
FOX-1A (AO-85),2015-058D,2026-06-11T17:14:16.526976,14.90943463,.0130128,64.7758,295.9784,58.7261,302.6519,0,U,40967,999,11275,.20996848E-3,.2264E-4,0
SINOD-D 1,2015-058E,2026-06-11T15:54:54.076896,14.95871014,.0118713,64.7758,276.2111,55.2811,305.9416,0,U,40968,999,11583,.25566961E-3,.3121E-4,0
SNAP-3 ALICE,2015-058G,2026-06-12T07:12:19.605888,15.58984202,.00295022,64.7489,120.8095,15.4406,344.7632,0,U,40970,999,11612,.16005141E-2,.129672E-2,0
LMRST-SAT,2015-058H,2026-06-12T01:47:35.418336,14.90567172,.01318123,64.7764,291.1993,60.6174,300.8023,0,U,40971,999,11279,.19267556E-3,.205E-4,0
SNAP-3 EDDIE,2015-058J,2026-06-12T07:03:38.045376,15.60180222,.00291676,64.7415,111.5909,19.7126,340.5139,0,U,40972,999,11826,.15792585E-2,.133955E-2,0
PROPCUBE 3,2015-058K,2026-06-11T15:42:15.311232,14.94227092,.01237736,64.7688,269.8219,62.0937,299.2645,0,U,40973,999,11397,.22563369E-3,.2641E-4,0
BISONSAT,2015-058L,2026-06-12T05:13:56.396640,15.16085435,.0078593,64.7585,189.7091,49.3108,311.4810,0,U,40974,999,11486,.54055275E-3,.11119E-3,0
SNAP-3 JIMI,2015-058M,2026-06-12T06:18:46.771776,15.02258570,.01059238,64.7650,235.3515,57.3687,303.7598,0,U,40975,999,11348,.32454657E-3,.4663E-4,0
SINOD-D 3,2015-058P,2026-06-11T18:02:58.671744,14.93982116,.01189985,64.7732,292.7906,60.2941,300.9953,0,U,40977,999,11394,.26726986E-3,.3105E-4,0
HORYU-4,2016-012D,2026-06-12T04:16:37.128000,15.91940402,.0003837,30.9835,115.7146,236.1046,123.9250,0,U,41340,999,57001,.10937709E-2,.381515E-2,.49652686E-4
RAVAN,2016-067B,2026-06-12T05:10:36.548256,15.54209764,.00051286,97.9901,52.2155,45.4999,314.6671,0,U,41849,999,52692,.83402371E-3,.54541E-3,0
CELTEE 1,2016-067C,2026-06-11T14:38:43.144512,15.19627998,.00006674,98.0686,28.7972,111.8339,248.2965,0,U,41850,999,52503,.21851383E-3,.4578E-4,0
AEROCUBE 8D,2016-067E,2026-06-12T02:25:35.944608,15.24327821,.00044131,98.0697,32.8860,135.8879,224.2709,0,U,41852,999,52529,.28843939E-3,.6976E-4,0
AEROCUBE 8C,2016-067F,2026-06-11T20:44:43.614816,15.24570430,.00067863,98.0569,29.8659,83.4882,276.7126,0,U,41853,999,52525,.28604292E-3,.697E-4,0
CORVUS BC2,2017-042X,2026-06-12T00:19:05.717568,15.06259757,.00141937,97.4049,324.5650,126.6042,233.6494,0,U,42846,999,48628,.203057E-3,.2927E-4,0
CORVUS BC1,2017-042Y,2026-06-12T06:34:47.051616,15.06432955,.00131536,97.4080,325.6263,104.3164,255.9525,0,U,42847,999,48635,.2779507E-3,.4047E-4,0
MAKERSAT 0,2017-073D,2026-06-12T05:11:00.824928,15.31930480,.01054656,97.4639,45.6969,291.0231,67.9755,0,U,43016,999,46570,.56646113E-3,.20758E-3,0
